{
  "type": "FeatureCollection",
  "features": [
    {
      "type": "Feature",
      "properties": {
        "norad_id": 66503,
        "name": "STARLINK-35917",
        "group": "last-30-days",
        "lat": -41.97032006187675,
        "lon": 46.910118061925985,
        "alt_km": 439.62704929267784,
        "timestamp": "2025-12-13T07:35:40.336362+00:00",
        "meta_object_name": "STARLINK-35917",
        "meta_object_id": "2025-263U",
        "meta_epoch": "2025-12-12T20:00:01.999872",
        "meta_mean_motion": 15.44974609,
        "meta_eccentricity": 0.00015575,
        "meta_inclination": 43.0002,
        "meta_ra_of_asc_node": 124.5567,
        "meta_arg_of_pericenter": 287.3644,
        "meta_mean_anomaly": 185.6338,
        "meta_ephemeris_type": 0,
        "meta_classification_type": "U",
        "meta_norad_cat_id": 66503,
        "meta_element_set_no": 999,
        "meta_rev_at_epoch": 565,
        "meta_bstar": -0.046418719,
        "meta_mean_motion_dot": -0.01997372,
        "meta_mean_motion_ddot": 0,
        "tle_line1": "1 66503U 25263U   25346.83335648 -.01997372  00000+0 -46419-1 0  9992",
        "tle_line2": "2 66503  43.0002 124.5567 0001557 287.3644 185.6338 15.44974609  5652"
      },
      "geometry": {
        "type": "Point",
        "coordinates": [
          46.910118061925985,
          -41.97032006187675
        ]
      }
    },
    {
      "type": "Feature",
      "properties": {
        "norad_id": 66504,
        "name": "STARLINK-35916",
        "group": "last-30-days",
        "lat": 4.478139669984023,
        "lon": 128.13096774319274,
        "alt_km": 442.6576461376253,
        "timestamp": "2025-12-13T07:35:40.336370+00:00",
        "meta_object_name": "STARLINK-35916",
        "meta_object_id": "2025-263V",
        "meta_epoch": "2025-12-12T17:33:48.907584",
        "meta_mean_motion": 15.40710087,
        "meta_eccentricity": 0.00029138,
        "meta_inclination": 43.0006,
        "meta_ra_of_asc_node": 126.6799,
        "meta_arg_of_pericenter": 281.8112,
        "meta_mean_anomaly": 78.2418,
        "meta_ephemeris_type": 0,
        "meta_classification_type": "U",
        "meta_norad_cat_id": 66504,
        "meta_element_set_no": 999,
        "meta_rev_at_epoch": 554,
        "meta_bstar": 0.0014947011,
        "meta_mean_motion_dot": 0.00062674,
        "meta_mean_motion_ddot": 0,
        "tle_line1": "1 66504U 25263V   25346.73181606  .00062674  00000+0  14947-2 0  9992",
        "tle_line2": "2 66504  43.0006 126.6799 0002913 281.8112  78.2418 15.40710087  5541"
      },
      "geometry": {
        "type": "Point",
        "coordinates": [
          128.13096774319274,
          4.478139669984023
        ]
      }
    },
    {
      "type": "Feature",
      "properties": {
        "norad_id": 66505,
        "name": "STARLINK-34766",
        "group": "last-30-days",
        "lat": -37.12081687430155,
        "lon": 67.39178105064539,
        "alt_km": 416.61086431333933,
        "timestamp": "2025-12-13T07:35:40.336379+00:00",
        "meta_object_name": "STARLINK-34766",
        "meta_object_id": "2025-263W",
        "meta_epoch": "2025-12-12T17:56:57.882624",
        "meta_mean_motion": 15.50613801,
        "meta_eccentricity": 0.00016181,
        "meta_inclination": 42.9974,
        "meta_ra_of_asc_node": 125.0394,
        "meta_arg_of_pericenter": 278.9286,
        "meta_mean_anomaly": 81.1391,
        "meta_ephemeris_type": 0,
        "meta_classification_type": "U",
        "meta_norad_cat_id": 66505,
        "meta_element_set_no": 999,
        "meta_rev_at_epoch": 556,
        "meta_bstar": 0.0019225717,
        "meta_mean_motion_dot": 0.00114249,
        "meta_mean_motion_ddot": 0,
        "tle_line1": "1 66505U 25263W   25346.74789216  .00114249  00000+0  19226-2 0  9996",
        "tle_line2": "2 66505  42.9974 125.0394 0001618 278.9286  81.1391 15.50613801  5560"
      },
      "geometry": {
        "type": "Point",
        "coordinates": [
          67.39178105064539,
          -37.12081687430155
        ]
      }
    },
    {
      "type": "Feature",
      "properties": {
        "norad_id": 66506,
        "name": "STARLINK-34765",
        "group": "last-30-days",
        "lat": -36.34438804712473,
        "lon": 69.5576602484682,
        "alt_km": 416.56612155074436,
        "timestamp": "2025-12-13T07:35:40.336390+00:00",
        "meta_object_name": "STARLINK-34765",
        "meta_object_id": "2025-263X",
        "meta_epoch": "2025-12-12T17:56:28.118688",
        "meta_mean_motion": 15.50614072,
        "meta_eccentricity": 0.00017352,
        "meta_inclination": 42.9977,
        "meta_ra_of_asc_node": 125.0386,
        "meta_arg_of_pericenter": 277.9312,
        "meta_mean_anomaly": 82.1351,
        "meta_ephemeris_type": 0,
        "meta_classification_type": "U",
        "meta_norad_cat_id": 66506,
        "meta_element_set_no": 999,
        "meta_rev_at_epoch": 556,
        "meta_bstar": 0.0016350545,
        "meta_mean_motion_dot": 0.00096897,
        "meta_mean_motion_ddot": 0,
        "tle_line1": "1 66506U 25263X   25346.74754767  .00096897  00000+0  16351-2 0  9994",
        "tle_line2": "2 66506  42.9977 125.0386 0001735 277.9312  82.1351 15.50614072  5562"
      },
      "geometry": {
        "type": "Point",
        "coordinates": [
          69.5576602484682,
          -36.34438804712473
        ]
      }
    },
    {
      "type": "Feature",
      "properties": {
        "norad_id": 66507,
        "name": "STARLINK-34767",
        "group": "last-30-days",
        "lat": -41.83485428940515,
        "lon": 15.69091788285076,
        "alt_km": 447.81477231271947,
        "timestamp": "2025-12-13T07:35:40.336399+00:00",
        "meta_object_name": "STARLINK-34767",
        "meta_object_id": "2025-263Y",
        "meta_epoch": "2025-12-12T20:00:01.999872",
        "meta_mean_motion": 15.42054439,
        "meta_eccentricity": 0.00016965,
        "meta_inclination": 42.9998,
        "meta_ra_of_asc_node": 124.5993,
        "meta_arg_of_pericenter": 269.8489,
        "meta_mean_anomaly": 184.9527,
        "meta_ephemeris_type": 0,
        "meta_classification_type": "U",
        "meta_norad_cat_id": 66507,
        "meta_element_set_no": 999,
        "meta_rev_at_epoch": 565,
        "meta_bstar": -0.048145836,
        "meta_mean_motion_dot": -0.01887561,
        "meta_mean_motion_ddot": 0,
        "tle_line1": "1 66507U 25263Y   25346.83335648 -.01887561  00000+0 -48146-1 0  9993",
        "tle_line2": "2 66507  42.9998 124.5993 0001696 269.8489 184.9527 15.42054439  5657"
      },
      "geometry": {
        "type": "Point",
        "coordinates": [
          15.69091788285076,
          -41.83485428940515
        ]
      }
    },
    {
      "type": "Feature",
      "properties": {
        "norad_id": 66508,
        "name": "STARLINK-35608",
        "group": "last-30-days",
        "lat": -34.7789667993946,
        "lon": 73.51889634225384,
        "alt_km": 415.2980599314851,
        "timestamp": "2025-12-13T07:35:40.336408+00:00",
        "meta_object_name": "STARLINK-35608",
        "meta_object_id": "2025-263Z",
        "meta_epoch": "2025-12-12T17:54:36.559872",
        "meta_mean_motion": 15.48850381,
        "meta_eccentricity": 0.0012121,
        "meta_inclination": 42.9993,
        "meta_ra_of_asc_node": 125.03,
        "meta_arg_of_pericenter": 271.6862,
        "meta_mean_anomaly": 88.261,
        "meta_ephemeris_type": 0,
        "meta_classification_type": "U",
        "meta_norad_cat_id": 66508,
        "meta_element_set_no": 999,
        "meta_rev_at_epoch": 556,
        "meta_bstar": 0.0027632022,
        "meta_mean_motion_dot": 0.00155618,
        "meta_mean_motion_ddot": 0,
        "tle_line1": "1 66508U 25263Z   25346.74625648  .00155618  00000+0  27632-2 0  9992",
        "tle_line2": "2 66508  42.9993 125.0300 0012121 271.6862  88.2610 15.48850381  5567"
      },
      "geometry": {
        "type": "Point",
        "coordinates": [
          73.51889634225384,
          -34.7789667993946
        ]
      }
    },
    {
      "type": "Feature",
      "properties": {
        "norad_id": 66509,
        "name": "STARLINK-35598",
        "group": "last-30-days",
        "lat": -27.692815274389396,
        "lon": 87.38243169095003,
        "alt_km": 415.4461248549169,
        "timestamp": "2025-12-13T07:35:40.336417+00:00",
        "meta_object_name": "STARLINK-35598",
        "meta_object_id": "2025-263AA",
        "meta_epoch": "2025-12-12T17:51:59.965920",
        "meta_mean_motion": 15.50649033,
        "meta_eccentricity": 0.00053458,
        "meta_inclination": 42.9978,
        "meta_ra_of_asc_node": 125.0127,
        "meta_arg_of_pericenter": 249.8258,
        "meta_mean_anomaly": 110.2028,
        "meta_ephemeris_type": 0,
        "meta_classification_type": "U",
        "meta_norad_cat_id": 66509,
        "meta_element_set_no": 999,
        "meta_rev_at_epoch": 556,
        "meta_bstar": 0.0015660019,
        "meta_mean_motion_dot": 0.00092897,
        "meta_mean_motion_ddot": 0,
        "tle_line1": "1 66509U 25263AA  25346.74444405  .00092897  00000+0  15660-2 0  9990",
        "tle_line2": "2 66509  42.9978 125.0127 0005345 249.8258 110.2028 15.50649033  5566"
      },
      "geometry": {
        "type": "Point",
        "coordinates": [
          87.38243169095003,
          -27.692815274389396
        ]
      }
    }
  ]
}